[{"OBJECT_NAME":"STARLINK-3942","OBJECT_ID":"2022-051AG","EPOCH":"2026-03-09T12:02:27.748320","MEAN_MOTION":15.08837727,"ECCENTRICITY":0.00014793,"INCLINATION":53.2177,"RA_OF_ASC_NODE":134.9659,"ARG_OF_PERICENTER":91.5973,"MEAN_ANOMALY":268.5189,"EPHEMERIS_TYPE":0,"CLASSIFICATION_TYPE":"U","NORAD_CAT_ID":52563,"ELEMENT_SET_NO":999,"REV_AT_EPOCH":21134,"BSTAR":-2.7659163e-5,"MEAN_MOTION_DOT":-7.28e-6,"MEAN_MOTION_DDOT":0},{"OBJECT_NAME":"METEOR 2-5 DEB","OBJECT_ID":"1979-095D","EPOCH":"2026-03-07T02:20:18.720096","MEAN_MOTION":15.07655153,"ECCENTRICITY":0.00106351,"INCLINATION":81.1653,"RA_OF_ASC_NODE":357.8549,"ARG_OF_PERICENTER":34.5561,"MEAN_ANOMALY":325.6353,"EPHEMERIS_TYPE":0,"CLASSIFICATION_TYPE":"U","NORAD_CAT_ID":28555,"ELEMENT_SET_NO":999,"REV_AT_EPOCH":23235,"BSTAR":0.011673296,"MEAN_MOTION_DOT":0.00182479,"MEAN_MOTION_DDOT":0}]
